{
  "norad_id": 59613,
  "name": "STARLINK-31746",
  "history": [
    {
      "epoch": "2026-03-28T21:24:42.180768Z",
      "apogee_km": 483.9983342796395,
      "perigee_km": 482.11013445194203,
      "latitude_deg": 1.0306706064228111e-06,
      "longitude_deg": 145.91126400984461,
      "height_km": 482.8263034593558,
      "semi_major_axis_km": 6861.1912343657905,
      "eccentricity": 0.0001376,
      "inclination_deg": 43.0042,
      "raan_deg": 293.3931,
      "arg_perigee_deg": 270.3084,
      "mean_anomaly_deg": 89.761,
      "mean_motion_rev_day": 15.27578284
    },
    {
      "epoch": "2026-03-28T21:24:42.181632Z",
      "apogee_km": 483.9981284439018,
      "perigee_km": 482.1103402876788,
      "latitude_deg": -1.3280888074103733e-06,
      "longitude_deg": 145.91125788487335,
      "height_km": 482.82630456697285,
      "semi_major_axis_km": 6861.1912343657905,
      "eccentricity": 0.00013757,
      "inclination_deg": 43.0042,
      "raan_deg": 293.3931,
      "arg_perigee_deg": 270.3084,
      "mean_anomaly_deg": 89.761,
      "mean_motion_rev_day": 15.27578284
    },
    {
      "epoch": "2026-03-29T20:57:02.625120Z",
      "apogee_km": 483.89620520067365,
      "perigee_km": 482.18365543886466,
      "latitude_deg": -2.571476194856968e-05,
      "longitude_deg": 146.32053820755283,
      "height_km": 482.72985094023187,
      "semi_major_axis_km": 6861.176930319769,
      "eccentricity": 0.0001248,
      "inclination_deg": 43.004,
      "raan_deg": 287.8543,
      "arg_perigee_deg": 275.8388,
      "mean_anomaly_deg": 84.2321,
      "mean_motion_rev_day": 15.27583061
    },
    {
      "epoch": "2026-03-30T06:21:59.142240Z",
      "apogee_km": 483.8804817931896,
      "perigee_km": 482.2166442941507,
      "latitude_deg": 5.093599089765117e-06,
      "longitude_deg": 2.4828944037159904,
      "height_km": 482.67677095193807,
      "semi_major_axis_km": 6861.185563043669,
      "eccentricity": 0.00012125,
      "inclination_deg": 43.0039,
      "raan_deg": 285.6388,
      "arg_perigee_deg": 280.3018,
      "mean_anomaly_deg": 79.7697,
      "mean_motion_rev_day": 15.27580178
    },
    {
      "epoch": "2026-03-30T14:12:46.117152Z",
      "apogee_km": 483.89296829281466,
      "perigee_km": 482.1775380060817,
      "latitude_deg": 1.2189668285835451e-05,
      "longitude_deg": -117.38206590686802,
      "height_km": 482.6906543869478,
      "semi_major_axis_km": 6861.172253149448,
      "eccentricity": 0.00012501,
      "inclination_deg": 43.0034,
      "raan_deg": 283.7918,
      "arg_perigee_deg": 278.1476,
      "mean_anomaly_deg": 81.9234,
      "mean_motion_rev_day": 15.27584623
    },
    {
      "epoch": "2026-03-30T20:29:23.678592Z",
      "apogee_km": 483.8886569815222,
      "perigee_km": 482.221524527311,
      "latitude_deg": -3.787926712291702e-05,
      "longitude_deg": 146.72648365330093,
      "height_km": 482.7970730369711,
      "semi_major_axis_km": 6861.192090754416,
      "eccentricity": 0.00012149,
      "inclination_deg": 43.0037,
      "raan_deg": 282.3147,
      "arg_perigee_deg": 272.4054,
      "mean_anomaly_deg": 87.6658,
      "mean_motion_rev_day": 15.27577998
    },
    {
      "epoch": "2026-03-31T20:01:42.165120Z",
      "apogee_km": 483.85182542932034,
      "perigee_km": 482.107729544482,
      "latitude_deg": 5.0584622203894326e-05,
      "longitude_deg": 147.14486157331933,
      "height_km": 482.5237047333517,
      "semi_major_axis_km": 6861.116777486901,
      "eccentricity": 0.0001271,
      "inclination_deg": 43.0034,
      "raan_deg": 276.7767,
      "arg_perigee_deg": 285.4991,
      "mean_anomaly_deg": 74.5721,
      "mean_motion_rev_day": 15.2760315
    },
    {
      "epoch": "2026-04-01T19:34:05.618784Z",
      "apogee_km": 484.14602298755926,
      "perigee_km": 482.02041696341075,
      "latitude_deg": -1.960808918594654e-05,
      "longitude_deg": 147.54141714881166,
      "height_km": 482.73985018222515,
      "semi_major_axis_km": 6861.220219975485,
      "eccentricity": 0.0001549,
      "inclination_deg": 43.0045,
      "raan_deg": 271.2378,
      "arg_perigee_deg": 276.5214,
      "mean_anomaly_deg": 83.5461,
      "mean_motion_rev_day": 15.27568604
    },
    {
      "epoch": "2026-04-02T20:40:34.883904Z",
      "apogee_km": 483.88050861260035,
      "perigee_km": 482.2612635514852,
      "latitude_deg": 3.5605805941316473e-05,
      "longitude_deg": 123.98098462703415,
      "height_km": 482.60729320978766,
      "semi_major_axis_km": 6861.207886082042,
      "eccentricity": 0.000118,
      "inclination_deg": 43.0033,
      "raan_deg": 265.3304,
      "arg_perigee_deg": 287.2778,
      "mean_anomaly_deg": 72.7945,
      "mean_motion_rev_day": 15.27572723
    },
    {
      "epoch": "2026-04-02T20:40:34.884768Z",
      "apogee_km": 483.88030277636335,
      "perigee_km": 482.26146938772126,
      "latitude_deg": 3.335257298755542e-05,
      "longitude_deg": 123.98097861450908,
      "height_km": 482.60735433529413,
      "semi_major_axis_km": 6861.207886082042,
      "eccentricity": 0.00011797,
      "inclination_deg": 43.0033,
      "raan_deg": 265.3304,
      "arg_perigee_deg": 287.2778,
      "mean_anomaly_deg": 72.7945,
      "mean_motion_rev_day": 15.27572723
    },
    {
      "epoch": "2026-04-03T12:22:12.825408Z",
      "apogee_km": 483.9099239574143,
      "perigee_km": 482.44626822111695,
      "latitude_deg": -1.3702171098138245e-06,
      "longitude_deg": -115.76516879041893,
      "height_km": 482.5564287328694,
      "semi_major_axis_km": 6861.315096089265,
      "eccentricity": 0.00010666,
      "inclination_deg": 43.0032,
      "raan_deg": 261.6369,
      "arg_perigee_deg": 302.9784,
      "mean_anomaly_deg": 57.0965,
      "mean_motion_rev_day": 15.2753692
    },
    {
      "epoch": "2026-04-04T19:45:16.329024Z",
      "apogee_km": 484.06326318889205,
      "perigee_km": 481.889662443873,
      "latitude_deg": 5.972175927943326e-05,
      "longitude_deg": 124.79668945776109,
      "height_km": 482.3649899695049,
      "semi_major_axis_km": 6861.113462816383,
      "eccentricity": 0.0001584,
      "inclination_deg": 43.0058,
      "raan_deg": 254.2522,
      "arg_perigee_deg": 290.9694,
      "mean_anomaly_deg": 69.0989,
      "mean_motion_rev_day": 15.27604257
    },
    {
      "epoch": "2026-04-05T11:26:51.409824Z",
      "apogee_km": 483.50448471483287,
      "perigee_km": 482.62954397892463,
      "latitude_deg": 2.4986673526057657e-05,
      "longitude_deg": -114.93791040933536,
      "height_km": 482.480653168009,
      "semi_major_axis_km": 6861.2040143468785,
      "eccentricity": 6.376e-05,
      "inclination_deg": 43.0023,
      "raan_deg": 250.5583,
      "arg_perigee_deg": 325.9416,
      "mean_anomaly_deg": 34.1395,
      "mean_motion_rev_day": 15.27574016
    },
    {
      "epoch": "2026-04-05T17:43:29.539776Z",
      "apogee_km": 483.7896691016722,
      "perigee_km": 482.3844904101379,
      "latitude_deg": 6.210853785583637e-06,
      "longitude_deg": 149.16809646166615,
      "height_km": 482.3115504168646,
      "semi_major_axis_km": 6861.224079755904,
      "eccentricity": 0.0001024,
      "inclination_deg": 43.0026,
      "raan_deg": 249.081,
      "arg_perigee_deg": 321.7723,
      "mean_anomaly_deg": 38.3056,
      "mean_motion_rev_day": 15.27567315
    }
  ]
}